     3.00           N                   E                   RINEX VERSION / TYPE
BRD_USR             ESA                 20190105 081955  UTCPGM / RUN BY / DATE
 GAL   4.1500E+01 -7.8125E-03 -2.7466E-04  0.0000E+00       IONOSPHERIC CORR
GAUT -9.3132257462E-10 0.000000000E+00 518400 2034 GSTB   0 TIME SYSTEM CORR
GPGA -3.2014213502E-09-1.332267630E-15 518400 2034 GSTB   0 TIME SYSTEM CORR
                                                            END OF HEADER
E33 2019 01 05 06 40 00 8.478669333272E-04 7.105427357601E-14 0.000000000000E+00
     8.000000000000E+00-1.861875000000E+02 2.760472127602E-09 1.347906403266E+00
    -8.691102266312E-06 3.525483189151E-04 4.552304744720E-06 5.440602582932E+03
     5.424000000000E+05-3.725290298462E-08-7.451622737426E-01 0.000000000000E+00
     9.852307600501E-01 2.556875000000E+02-1.522042002679E+00-5.516658362393E-09
    -2.985838657879E-10 5.210000000000E+02 2.034000000000E+03 0.000000000000E+00
     3.120000000000E+00 4.550000000000E+02-7.916241884232E-09-9.080395102501E-09
     5.430850000000E+05 0.000000000000E+00 0.000000000000E+00 0.000000000000E+00
E02 2019 01 05 06 40 00 4.203506978229E-05 1.506350599811E-12 0.000000000000E+00
     8.000000000000E+00 1.946875000000E+02 2.286166656589E-09-9.438050718067E-01
     9.005889296532E-06 2.678458113223E-04 1.084804534912E-05 5.440628768921E+03
     5.424000000000E+05-1.341104507446E-07-2.825553552836E+00-6.705522537231E-08
     9.903639537996E-01 1.157500000000E+02-2.780849580747E-01-5.094140762839E-09
     1.614352958566E-10 2.580000000000E+02 2.034000000000E+03 0.000000000000E+00
     3.120000000000E+00 0.000000000000E+00-6.286427378654E-09 0.000000000000E+00
     5.431000000000E+05 0.000000000000E+00 0.000000000000E+00 0.000000000000E+00
E03 2019 01 05 06 40 00-1.186723820865E-04-4.277467269276E-12 0.000000000000E+00
     8.000000000000E+00 1.875000000000E+01 3.696582548929E-09 2.159368435963E-01
     8.549541234970E-07 2.788353012875E-04 4.408881068230E-06 5.440603288651E+03
     5.424000000000E+05-2.048909664154E-08 1.365362200725E+00 3.725290298462E-08
     9.521643949089E-01 2.413125000000E+02 6.521496394387E-01-5.701666068706E-09
     2.610823036973E-10 2.580000000000E+02 2.034000000000E+03 0.000000000000E+00
     3.120000000000E+00 0.000000000000E+00-1.862645149231E-09 0.000000000000E+00
     5.431000000000E+05 0.000000000000E+00 0.000000000000E+00 0.000000000000E+00
E04 2019 01 05 06 40 00-1.935717300512E-04-7.929656931083E-12 0.000000000000E+00
     8.000000000000E+00 1.659375000000E+01 3.784443351542E-09 1.348806175420E+00
     7.338821887970E-07 8.575757965446E-05 3.930181264877E-06 5.440602485657E+03
     5.424000000000E+05 7.450580596924E-09 1.365414230869E+00 3.725290298462E-09
     9.522069204746E-01 2.522187500000E+02 1.879956330310E+00-5.819528120991E-09
     1.767930784271E-10 2.580000000000E+02 2.034000000000E+03 0.000000000000E+00
     3.120000000000E+00 0.000000000000E+00-7.916241884232E-09 0.000000000000E+00
     5.431000000000E+05 0.000000000000E+00 0.000000000000E+00 0.000000000000E+00
E05 2019 01 05 06 40 00 1.304414472543E-04-6.593836587854E-12 0.000000000000E+00
     8.000000000000E+00 1.778125000000E+01 3.663724037383E-09 1.135430130422E-01
     8.139759302139E-07 1.516322372481E-04 4.421919584274E-06 5.440600999832E+03
     5.424000000000E+05-2.607703208923E-08 1.365346775716E+00-5.774199962616E-08
     9.521783628508E-01 2.433125000000E+02 1.542008322630E+00-5.675236396376E-09
     1.982225424788E-10 2.580000000000E+02 2.034000000000E+03 0.000000000000E+00
     3.120000000000E+00 0.000000000000E+00-1.164153218269E-09 0.000000000000E+00
     5.431000000000E+05 0.000000000000E+00 0.000000000000E+00 0.000000000000E+00
E07 2019 01 05 06 40 00-1.067450502887E-04-7.105427357601E-12 0.000000000000E+00
     8.000000000000E+00 2.084375000000E+01 3.700154126271E-09-8.127299218520E-01
     8.828938007355E-07 1.465814420953E-04 4.343688488007E-06 5.440605279922E+03
     5.424000000000E+05-1.490116119385E-08 1.365363814323E+00-1.303851604462E-08
     9.522075787877E-01 2.443750000000E+02 1.103949640162E-01-5.770240353672E-09
     2.407243128482E-10 2.580000000000E+02 2.034000000000E+03 0.000000000000E+00
     3.120000000000E+00 0.000000000000E+00 2.328306436539E-10 0.000000000000E+00
     5.431000000000E+05 0.000000000000E+00 0.000000000000E+00 0.000000000000E+00
E08 2019 01 05 06 40 00 6.429581437260E-03-7.617018127348E-12 0.000000000000E+00
     8.000000000000E+00 2.084375000000E+01 3.639080153724E-09-4.309243923363E-01
     9.145587682724E-07 2.309862757102E-04 4.429370164871E-06 5.440604156494E+03
     5.424000000000E+05 2.235174179077E-08 1.356717057077E+00-5.587935447693E-09
     9.581493902652E-01 2.420937500000E+02 5.152426587249E-01-5.695237229491E-09
     2.682254583813E-10 2.580000000000E+02 2.034000000000E+03 0.000000000000E+00
     3.120000000000E+00 0.000000000000E+00-8.614733815193E-09 0.000000000000E+00
     5.431000000000E+05 0.000000000000E+00 0.000000000000E+00 0.000000000000E+00
E12 2019 01 05 06 40 00 5.873155256268E-03 8.429879017058E-11 0.000000000000E+00
     8.000000000000E+00-1.864687500000E+02 2.904406694483E-09-3.651713287945E-02
    -8.683651685715E-06 3.642853116617E-04 5.038455128670E-06 5.440606529236E+03
     5.424000000000E+05-3.539025783539E-08-7.398396993960E-01 3.166496753693E-08
     9.820074102418E-01 2.437500000000E+02-9.082653510690E-01-5.578803808143E-09
    -2.778687172046E-10 2.580000000000E+02 2.034000000000E+03 0.000000000000E+00
     3.120000000000E+00 0.000000000000E+00-1.559965312481E-08 0.000000000000E+00
     5.431000000000E+05 0.000000000000E+00 0.000000000000E+00 0.000000000000E+00
E14 2019 01 05 06 40 00 6.464527628850E-03-5.684341886081E-12 0.000000000000E+00
     8.000000000000E+00-1.856562500000E+02 3.869804050015E-09-2.117525327452E+00
    -5.420297384262E-06 1.663841707632E-01-7.132068276405E-06 5.289393415451E+03
     5.424000000000E+05 1.864507794380E-06-1.340105736394E+00 2.589076757431E-07
     8.825625650619E-01 4.267500000000E+02 1.452293671827E+00-5.771668984609E-09
     7.043150518347E-10 2.580000000000E+02 2.034000000000E+03 0.000000000000E+00
     3.120000000000E+00 5.600000000000E+01 3.306195139885E-08 0.000000000000E+00
     5.431000000000E+05 0.000000000000E+00 0.000000000000E+00 0.000000000000E+00
E19 2019 01 05 06 40 00-9.362178388983E-06 2.842170943040E-13 0.000000000000E+00
     8.000000000000E+00 2.278125000000E+01 3.637651522787E-09 1.871906999549E+00
     1.113861799240E-06 1.404979266226E-04 4.164874553680E-06 5.440603166580E+03
     5.424000000000E+05 1.676380634308E-08 1.362072064317E+00 2.048909664154E-08
     9.579354414219E-01 2.508125000000E+02 2.217507888653E+00-5.755239728836E-09
     2.225092684042E-10 2.580000000000E+02 2.034000000000E+03 0.000000000000E+00
     3.120000000000E+00 0.000000000000E+00-8.614733815193E-09 0.000000000000E+00
     5.431000000000E+05 0.000000000000E+00 0.000000000000E+00 0.000000000000E+00
E24 2019 01 05 06 40 00 6.302188092377E-03-1.975308805413E-11 0.000000000000E+00
     8.000000000000E+00 1.970937500000E+02 2.315453590793E-09-9.554125748258E-02
     9.171664714813E-06 4.647827008739E-04 9.872019290924E-06 5.440628555298E+03
     5.424000000000E+05 3.166496753693E-08-2.822046963069E+00 1.490116119385E-08
     9.879230384114E-01 1.416562500000E+02 4.413995675037E-01-5.158429154994E-09
     8.928943354902E-11 2.580000000000E+02 2.034000000000E+03 0.000000000000E+00
     3.120000000000E+00 0.000000000000E+00 4.330649971962E-08 0.000000000000E+00
     5.431000000000E+05 0.000000000000E+00 0.000000000000E+00 0.000000000000E+00
E25 2019 01 05 06 40 00 1.933180203196E-03-1.143973804574E-11 0.000000000000E+00
     8.000000000000E+00 1.976875000000E+02 2.325096849617E-09 9.534427278366E-01
     9.242445230484E-06 2.187222708017E-04 1.058168709278E-05 5.440636238098E+03
     5.424000000000E+05-7.636845111847E-08-2.828135351624E+00-5.215406417847E-08
     9.899251807801E-01 1.244687500000E+02-1.370310900024E+00-5.219503127542E-09
     1.042900583853E-10 2.580000000000E+02 2.034000000000E+03 0.000000000000E+00
     3.120000000000E+00 0.000000000000E+00-1.396983861923E-09 0.000000000000E+00
     5.431000000000E+05 0.000000000000E+00 0.000000000000E+00 0.000000000000E+00
E26 2019 01 05 06 40 00 5.055412882939E-03-4.337152859080E-11 0.000000000000E+00
     8.000000000000E+00-1.840937500000E+02 2.830117885770E-09 2.732781707533E+00
    -8.596107363701E-06 3.221133956686E-04 4.297122359276E-06 5.440615285873E+03
     5.424000000000E+05 5.587935447693E-09-7.361852817577E-01-5.587935447693E-08
     9.783518881003E-01 2.560625000000E+02-2.114994133926E+00-5.602019060866E-09
    -2.942979729776E-10 2.580000000000E+02 2.034000000000E+03 0.000000000000E+00
     3.120000000000E+00 0.000000000000E+00 1.164153218269E-09 0.000000000000E+00
     5.431000000000E+05 0.000000000000E+00 0.000000000000E+00 0.000000000000E+00
E27 2019 01 05 06 40 00 5.560523713939E-04-7.730704965070E-12 0.000000000000E+00
     8.000000000000E+00 1.612812500000E+02 2.358669676631E-09-1.849437969086E+00
     7.569789886475E-06 2.082331338897E-04 1.095607876778E-05 5.440633832932E+03
     5.424000000000E+05 1.862645149231E-09-2.828109945125E+00 2.048909664154E-08
     9.898927903109E-01 1.197500000000E+02-9.237423250728E-01-5.129499378524E-09
     8.714648714384E-11 2.580000000000E+02 2.034000000000E+03 0.000000000000E+00
     3.120000000000E+00 0.000000000000E+00-2.793967723846E-09 0.000000000000E+00
     5.431000000000E+05 0.000000000000E+00 0.000000000000E+00 0.000000000000E+00
